ONEWEB-0211             
1 48767U 21045A   25316.30052126  .00000104  00000+0  24008-3 0  9991
2 48767  87.8972 302.4028 0002311  85.6406 274.4989 13.16135946215910
ONEWEB-0223             
1 48768U 21045B   25315.97352279  .00000017  00000+0  11048-4 0  9990
2 48768  87.8960 302.5275 0002292  93.5101 266.6292 13.15550126215843
ONEWEB-0230             
1 48769U 21045C   25316.24924527  .00000120  00000+0  28572-3 0  9997
2 48769  87.8955 302.5037 0001751  91.7216 268.4115 13.15550001216140
ONEWEB-0237             
1 48770U 21045D   25316.23814728  .00000004  00000+0 -23850-4 0  9996
2 48770  87.8960 302.5050 0002110  93.8930 266.2442 13.15550326215866
ONEWEB-0235             
1 48771U 21045E   25315.98461733  .00000007  00000+0 -15281-4 0  9994
2 48771  87.8959 302.5264 0002325  94.7487 265.3909 13.15550514215820
ONEWEB-0242             
1 48772U 21045F   25315.97829188 -.00000027  00000+0 -10470-3 0  9993
2 48772  87.8971 302.5188 0001905  93.3255 266.8094 13.15549940215867
ONEWEB-0241             
1 48773U 21045G   25315.96561657  .00000151  00000+0  36715-3 0  9993
2 48773  87.8961 302.5620 0002301  86.7883 273.3511 13.15549782215773
ONEWEB-0243             
1 48774U 21045H   25315.99728694 -.00000105  00000+0 -31191-3 0  9997
2 48774  87.8966 302.5634 0002158  97.9788 262.1587 13.15545090215803
ONEWEB-0222             
1 48775U 21045J   25315.98065151  .00000048  00000+0  94372-4 0  9994
2 48775  87.8969 302.5190 0002032  89.8988 270.2375 13.15550980215840
ONEWEB-0244             
1 48776U 21045K   25316.00681456 -.00000212  00000+0 -59660-3 0  9996
2 48776  87.8964 302.4996 0001914  91.8034 268.3315 13.15548760216411
ONEWEB-0247             
1 48777U 21045L   25316.00363504 -.00000090  00000+0 -27337-3 0  9998
2 48777  87.8954 302.5617 0002648 104.9178 255.2245 13.15549373215857
ONEWEB-0245             
1 48778U 21045M   25315.99887439 -.00000321  00000+0 -88641-3 0  9996
2 48778  87.8955 302.5271 0002093  85.0004 275.1365 13.15547804215824
ONEWEB-0229             
1 48779U 21045N   25315.99412137 -.00000064  00000+0 -20352-3 0  9995
2 48779  87.8956 302.5268 0001899  92.9894 267.1454 13.15550340215851
ONEWEB-0228             
1 48780U 21045P   25316.25571459 -.00000448  00000+0 -12242-2 0  9994
2 48780  87.8969 302.4554 0001968  90.8708 269.2648 13.15554034215809
ONEWEB-0232             
1 48781U 21045Q   25316.00204580 -.00000060  00000+0 -19443-3 0  9997
2 48781  87.8968 302.4971 0001901  89.3013 270.8335 13.15550202216097
ONEWEB-0231             
1 48782U 21045R   25315.97987332  .00000060  00000+0  12449-3 0  9993
2 48782  87.8959 302.5481 0002097  94.6289 265.5081 13.15550187215782
