[{"OBJECT_NAME":"ONEWEB-0211","OBJECT_ID":"2021-045A","EPOCH":"2025-11-12T07:12:45.036864","MEAN_MOTION":13.16135946,"ECCENTRICITY":0.00023117,"INCLINATION":87.8972,"RA_OF_ASC_NODE":302.4028,"ARG_OF_PERICENTER":85.6406,"MEAN_ANOMALY":274.4989,"EPHEMERIS_TYPE":0,"CLASSIFICATION_TYPE":"U","NORAD_CAT_ID":48767,"ELEMENT_SET_NO":999,"REV_AT_EPOCH":21591,"BSTAR":0.0002400836,"MEAN_MOTION_DOT":1.04e-6,"MEAN_MOTION_DDOT":0},{"OBJECT_NAME":"ONEWEB-0223","OBJECT_ID":"2021-045B","EPOCH":"2025-11-11T23:21:52.369056","MEAN_MOTION":13.15550126,"ECCENTRICITY":0.0002292,"INCLINATION":87.896,"RA_OF_ASC_NODE":302.5275,"ARG_OF_PERICENTER":93.5101,"MEAN_ANOMALY":266.6292,"EPHEMERIS_TYPE":0,"CLASSIFICATION_TYPE":"U","NORAD_CAT_ID":48768,"ELEMENT_SET_NO":999,"REV_AT_EPOCH":21584,"BSTAR":1.1048034e-5,"MEAN_MOTION_DOT":1.7e-7,"MEAN_MOTION_DDOT":0},{"OBJECT_NAME":"ONEWEB-0230","OBJECT_ID":"2021-045C","EPOCH":"2025-11-12T05:58:54.791328","MEAN_MOTION":13.15550001,"ECCENTRICITY":0.00017513,"INCLINATION":87.8955,"RA_OF_ASC_NODE":302.5037,"ARG_OF_PERICENTER":91.7216,"MEAN_ANOMALY":268.4115,"EPHEMERIS_TYPE":0,"CLASSIFICATION_TYPE":"U","NORAD_CAT_ID":48769,"ELEMENT_SET_NO":999,"REV_AT_EPOCH":21614,"BSTAR":0.00028572027,"MEAN_MOTION_DOT":1.2e-6,"MEAN_MOTION_DDOT":0},{"OBJECT_NAME":"ONEWEB-0237","OBJECT_ID":"2021-045D","EPOCH":"2025-11-12T05:42:55.924992","MEAN_MOTION":13.15550326,"ECCENTRICITY":0.00021109,"INCLINATION":87.896,"RA_OF_ASC_NODE":302.505,"ARG_OF_PERICENTER":93.893,"MEAN_ANOMALY":266.2442,"EPHEMERIS_TYPE":0,"CLASSIFICATION_TYPE":"U","NORAD_CAT_ID":48770,"ELEMENT_SET_NO":999,"REV_AT_EPOCH":21586,"BSTAR":-2.3849685e-5,"MEAN_MOTION_DOT":4.0e-8,"MEAN_MOTION_DDOT":0},{"OBJECT_NAME":"ONEWEB-0235","OBJECT_ID":"2021-045E","EPOCH":"2025-11-11T23:37:50.937312","MEAN_MOTION":13.15550514,"ECCENTRICITY":0.00023256,"INCLINATION":87.8959,"RA_OF_ASC_NODE":302.5264,"ARG_OF_PERICENTER":94.7487,"MEAN_ANOMALY":265.3909,"EPHEMERIS_TYPE":0,"CLASSIFICATION_TYPE":"U","NORAD_CAT_ID":48771,"ELEMENT_SET_NO":999,"REV_AT_EPOCH":21582,"BSTAR":-1.5281403e-5,"MEAN_MOTION_DOT":7.0e-8,"MEAN_MOTION_DDOT":0},{"OBJECT_NAME":"ONEWEB-0242","OBJECT_ID":"2021-045F","EPOCH":"2025-11-11T23:28:44.418432","MEAN_MOTION":13.1554994,"ECCENTRICITY":0.00019059,"INCLINATION":87.8971,"RA_OF_ASC_NODE":302.5188,"ARG_OF_PERICENTER":93.3255,"MEAN_ANOMALY":266.8094,"EPHEMERIS_TYPE":0,"CLASSIFICATION_TYPE":"U","NORAD_CAT_ID":48772,"ELEMENT_SET_NO":999,"REV_AT_EPOCH":21586,"BSTAR":-0.00010469962,"MEAN_MOTION_DOT":-2.7e-7,"MEAN_MOTION_DDOT":0},{"OBJECT_NAME":"ONEWEB-0241","OBJECT_ID":"2021-045G","EPOCH":"2025-11-11T23:10:29.271648","MEAN_MOTION":13.15549782,"ECCENTRICITY":0.00023011,"INCLINATION":87.8961,"RA_OF_ASC_NODE":302.562,"ARG_OF_PERICENTER":86.7883,"MEAN_ANOMALY":273.3511,"EPHEMERIS_TYPE":0,"CLASSIFICATION_TYPE":"U","NORAD_CAT_ID":48773,"ELEMENT_SET_NO":999,"REV_AT_EPOCH":21577,"BSTAR":0.00036715374,"MEAN_MOTION_DOT":1.51e-6,"MEAN_MOTION_DDOT":0},{"OBJECT_NAME":"ONEWEB-0243","OBJECT_ID":"2021-045H","EPOCH":"2025-11-11T23:56:05.591616","MEAN_MOTION":13.1554509,"ECCENTRICITY":0.00021586,"INCLINATION":87.8966,"RA_OF_ASC_NODE":302.5634,"ARG_OF_PERICENTER":97.9788,"MEAN_ANOMALY":262.1587,"EPHEMERIS_TYPE":0,"CLASSIFICATION_TYPE":"U","NORAD_CAT_ID":48774,"ELEMENT_SET_NO":999,"REV_AT_EPOCH":21580,"BSTAR":-0.00031191334,"MEAN_MOTION_DOT":-1.05e-6,"MEAN_MOTION_DDOT":0},{"OBJECT_NAME":"ONEWEB-0222","OBJECT_ID":"2021-045J","EPOCH":"2025-11-11T23:32:08.290464","MEAN_MOTION":13.1555098,"ECCENTRICITY":0.00020325,"INCLINATION":87.8969,"RA_OF_ASC_NODE":302.519,"ARG_OF_PERICENTER":89.8988,"MEAN_ANOMALY":270.2375,"EPHEMERIS_TYPE":0,"CLASSIFICATION_TYPE":"U","NORAD_CAT_ID":48775,"ELEMENT_SET_NO":999,"REV_AT_EPOCH":21584,"BSTAR":9.4371665e-5,"MEAN_MOTION_DOT":4.8e-7,"MEAN_MOTION_DDOT":0},{"OBJECT_NAME":"ONEWEB-0244","OBJECT_ID":"2021-045K","EPOCH":"2025-11-12T00:09:48.777984","MEAN_MOTION":13.1554876,"ECCENTRICITY":0.00019146,"INCLINATION":87.8964,"RA_OF_ASC_NODE":302.4996,"ARG_OF_PERICENTER":91.8034,"MEAN_ANOMALY":268.3315,"EPHEMERIS_TYPE":0,"CLASSIFICATION_TYPE":"U","NORAD_CAT_ID":48776,"ELEMENT_SET_NO":999,"REV_AT_EPOCH":21641,"BSTAR":-0.0005965978,"MEAN_MOTION_DOT":-2.12e-6,"MEAN_MOTION_DDOT":0},{"OBJECT_NAME":"ONEWEB-0247","OBJECT_ID":"2021-045L","EPOCH":"2025-11-12T00:05:14.067456","MEAN_MOTION":13.15549373,"ECCENTRICITY":0.0002648,"INCLINATION":87.8954,"RA_OF_ASC_NODE":302.5617,"ARG_OF_PERICENTER":104.9178,"MEAN_ANOMALY":255.2245,"EPHEMERIS_TYPE":0,"CLASSIFICATION_TYPE":"U","NORAD_CAT_ID":48777,"ELEMENT_SET_NO":999,"REV_AT_EPOCH":21585,"BSTAR":-0.00027336752,"MEAN_MOTION_DOT":-9.0e-7,"MEAN_MOTION_DDOT":0},{"OBJECT_NAME":"ONEWEB-0245","OBJECT_ID":"2021-045M","EPOCH":"2025-11-11T23:58:22.747296","MEAN_MOTION":13.15547804,"ECCENTRICITY":0.00020934,"INCLINATION":87.8955,"RA_OF_ASC_NODE":302.5271,"ARG_OF_PERICENTER":85.0004,"MEAN_ANOMALY":275.1365,"EPHEMERIS_TYPE":0,"CLASSIFICATION_TYPE":"U","NORAD_CAT_ID":48778,"ELEMENT_SET_NO":999,"REV_AT_EPOCH":21582,"BSTAR":-0.00088641306,"MEAN_MOTION_DOT":-3.21e-6,"MEAN_MOTION_DDOT":0},{"OBJECT_NAME":"ONEWEB-0229","OBJECT_ID":"2021-045N","EPOCH":"2025-11-11T23:51:32.086368","MEAN_MOTION":13.1555034,"ECCENTRICITY":0.00018995,"INCLINATION":87.8956,"RA_OF_ASC_NODE":302.5268,"ARG_OF_PERICENTER":92.9894,"MEAN_ANOMALY":267.1454,"EPHEMERIS_TYPE":0,"CLASSIFICATION_TYPE":"U","NORAD_CAT_ID":48779,"ELEMENT_SET_NO":999,"REV_AT_EPOCH":21585,"BSTAR":-0.00020351514,"MEAN_MOTION_DOT":-6.4e-7,"MEAN_MOTION_DDOT":0},{"OBJECT_NAME":"ONEWEB-0228","OBJECT_ID":"2021-045P","EPOCH":"2025-11-12T06:08:13.740576","MEAN_MOTION":13.15554034,"ECCENTRICITY":0.00019684,"INCLINATION":87.8969,"RA_OF_ASC_NODE":302.4554,"ARG_OF_PERICENTER":90.8708,"MEAN_ANOMALY":269.2648,"EPHEMERIS_TYPE":0,"CLASSIFICATION_TYPE":"U","NORAD_CAT_ID":48780,"ELEMENT_SET_NO":999,"REV_AT_EPOCH":21580,"BSTAR":-0.0012241683,"MEAN_MOTION_DOT":-4.48e-6,"MEAN_MOTION_DDOT":0},{"OBJECT_NAME":"ONEWEB-0232","OBJECT_ID":"2021-045Q","EPOCH":"2025-11-12T00:02:56.757120","MEAN_MOTION":13.15550202,"ECCENTRICITY":0.00019011,"INCLINATION":87.8968,"RA_OF_ASC_NODE":302.4971,"ARG_OF_PERICENTER":89.3013,"MEAN_ANOMALY":270.8335,"EPHEMERIS_TYPE":0,"CLASSIFICATION_TYPE":"U","NORAD_CAT_ID":48781,"ELEMENT_SET_NO":999,"REV_AT_EPOCH":21609,"BSTAR":-0.00019442868,"MEAN_MOTION_DOT":-6.0e-7,"MEAN_MOTION_DDOT":0},{"OBJECT_NAME":"ONEWEB-0231","OBJECT_ID":"2021-045R","EPOCH":"2025-11-11T23:31:01.054848","MEAN_MOTION":13.15550187,"ECCENTRICITY":0.00020975,"INCLINATION":87.8959,"RA_OF_ASC_NODE":302.5481,"ARG_OF_PERICENTER":94.6289,"MEAN_ANOMALY":265.5081,"EPHEMERIS_TYPE":0,"CLASSIFICATION_TYPE":"U","NORAD_CAT_ID":48782,"ELEMENT_SET_NO":999,"REV_AT_EPOCH":21578,"BSTAR":0.0001244934,"MEAN_MOTION_DOT":6.0e-7,"MEAN_MOTION_DDOT":0}]
